PANDORA
1 67395U 80229J   26095.80321759  .00000000  00000-0  37770-3 0    08
2 67395  97.8064  95.5932 0005585  25.9959 274.5869 14.87934773    05
